{
  "links" : {
    "next" : "https://api.nasa.gov/neo/rest/v1/feed?start_date=1995-01-23&end_date=1995-01-23&detailed=true&api_key=t0TVs3DtDT2H8Oy2Zy8m2eVrNsAVKAexjcZXUckd",
    "prev" : "https://api.nasa.gov/neo/rest/v1/feed?start_date=1995-01-21&end_date=1995-01-21&detailed=true&api_key=t0TVs3DtDT2H8Oy2Zy8m2eVrNsAVKAexjcZXUckd",
    "self" : "https://api.nasa.gov/neo/rest/v1/feed?start_date=1995-01-22&end_date=1995-01-22&detailed=true&api_key=t0TVs3DtDT2H8Oy2Zy8m2eVrNsAVKAexjcZXUckd"
  },
  "element_count" : 6,
  "near_earth_objects" : {
    "1995-01-22" : [ {
      "links" : {
        "self" : "https://api.nasa.gov/neo/rest/v1/neo/3444370?api_key=t0TVs3DtDT2H8Oy2Zy8m2eVrNsAVKAexjcZXUckd"
      },
      "neo_reference_id" : "3444370",
      "name" : "(2009 BH2)",
      "nasa_jpl_url" : "http://ssd.jpl.nasa.gov/sbdb.cgi?sstr=3444370",
      "absolute_magnitude_h" : 22.4,
      "estimated_diameter" : {
        "kilometers" : {
          "estimated_diameter_min" : 0.0880146521,
          "estimated_diameter_max" : 0.1968067451
        },
        "meters" : {
          "estimated_diameter_min" : 88.0146520901,
          "estimated_diameter_max" : 196.8067450894
        },
        "miles" : {
          "estimated_diameter_min" : 0.0546897524,
          "estimated_diameter_max" : 0.122290004
        },
        "feet" : {
          "estimated_diameter_min" : 288.7619911632,
          "estimated_diameter_max" : 645.6914415591
        }
      },
      "is_potentially_hazardous_asteroid" : false,
      "close_approach_data" : [ {
        "close_approach_date" : "1995-01-22",
        "epoch_date_close_approach" : 790761600000,
        "relative_velocity" : {
          "kilometers_per_second" : "22.4213663146",
          "kilometers_per_hour" : "80716.918732587",
          "miles_per_hour" : "50154.3543091455"
        },
        "miss_distance" : {
          "astronomical" : "0.2010399884",
          "lunar" : "78.2045516968",
          "kilometers" : "30075154",
          "miles" : "18687834"
        },
        "orbiting_body" : "Earth"
      } ],
      "orbital_data" : {
        "orbit_id" : "12",
        "orbit_determination_date" : "2017-04-06 09:01:38",
        "orbit_uncertainty" : "6",
        "minimum_orbit_intersection" : ".000317965",
        "jupiter_tisserand_invariant" : "7.033",
        "epoch_osculation" : "2458000.5",
        "eccentricity" : ".4758194774081156",
        "semi_major_axis" : ".8138767249034949",
        "inclination" : "23.18568668072357",
        "ascending_node_longitude" : "117.1112240445536",
        "orbital_period" : "268.18616502096",
        "perihelion_distance" : ".4266183269852852",
        "perihelion_argument" : "220.9403707579688",
        "aphelion_distance" : "1.201135122821705",
        "perihelion_time" : "2457996.360392773260",
        "mean_anomaly" : "5.556806412851552",
        "mean_motion" : "1.342351123786957",
        "equinox" : "J2000"
      }
    }, {
      "links" : {
        "self" : "https://api.nasa.gov/neo/rest/v1/neo/3448992?api_key=t0TVs3DtDT2H8Oy2Zy8m2eVrNsAVKAexjcZXUckd"
      },
      "neo_reference_id" : "3448992",
      "name" : "(2009 DD45)",
      "nasa_jpl_url" : "http://ssd.jpl.nasa.gov/sbdb.cgi?sstr=3448992",
      "absolute_magnitude_h" : 25.8,
      "estimated_diameter" : {
        "kilometers" : {
          "estimated_diameter_min" : 0.0183888672,
          "estimated_diameter_max" : 0.0411187571
        },
        "meters" : {
          "estimated_diameter_min" : 18.388867207,
          "estimated_diameter_max" : 41.1187571041
        },
        "miles" : {
          "estimated_diameter_min" : 0.0114263088,
          "estimated_diameter_max" : 0.0255500032
        },
        "feet" : {
          "estimated_diameter_min" : 60.3309310875,
          "estimated_diameter_max" : 134.9040630575
        }
      },
      "is_potentially_hazardous_asteroid" : false,
      "close_approach_data" : [ {
        "close_approach_date" : "1995-01-22",
        "epoch_date_close_approach" : 790761600000,
        "relative_velocity" : {
          "kilometers_per_second" : "17.2746114639",
          "kilometers_per_hour" : "62188.6012700346",
          "miles_per_hour" : "38641.5783835946"
        },
        "miss_distance" : {
          "astronomical" : "0.4310155871",
          "lunar" : "167.6650543213",
          "kilometers" : "64479012",
          "miles" : "40065400"
        },
        "orbiting_body" : "Earth"
      } ],
      "orbital_data" : {
        "orbit_id" : "23",
        "orbit_determination_date" : "2017-04-06 09:01:10",
        "orbit_uncertainty" : "4",
        "minimum_orbit_intersection" : ".00186378",
        "jupiter_tisserand_invariant" : "5.122",
        "epoch_osculation" : "2458000.5",
        "eccentricity" : ".2048406780030454",
        "semi_major_axis" : "1.240789317594743",
        "inclination" : "13.7442332087249",
        "ascending_node_longitude" : "161.933518574421",
        "orbital_period" : "504.8303955012963",
        "perihelion_distance" : ".9866251925196996",
        "perihelion_argument" : "13.92021256207252",
        "aphelion_distance" : "1.494953442669786",
        "perihelion_time" : "2457935.033370717737",
        "mean_anomaly" : "46.68495944704712",
        "mean_motion" : ".7131107857372974",
        "equinox" : "J2000"
      }
    }, {
      "links" : {
        "self" : "https://api.nasa.gov/neo/rest/v1/neo/3611400?api_key=t0TVs3DtDT2H8Oy2Zy8m2eVrNsAVKAexjcZXUckd"
      },
      "neo_reference_id" : "3611400",
      "name" : "(2012 UC)",
      "nasa_jpl_url" : "http://ssd.jpl.nasa.gov/sbdb.cgi?sstr=3611400",
      "absolute_magnitude_h" : 25.0,
      "estimated_diameter" : {
        "kilometers" : {
          "estimated_diameter_min" : 0.02658,
          "estimated_diameter_max" : 0.0594346868
        },
        "meters" : {
          "estimated_diameter_min" : 26.58,
          "estimated_diameter_max" : 59.4346868419
        },
        "miles" : {
          "estimated_diameter_min" : 0.0165160412,
          "estimated_diameter_max" : 0.0369309908
        },
        "feet" : {
          "estimated_diameter_min" : 87.2047272,
          "estimated_diameter_max" : 194.9956979785
        }
      },
      "is_potentially_hazardous_asteroid" : false,
      "close_approach_data" : [ {
        "close_approach_date" : "1995-01-22",
        "epoch_date_close_approach" : 790761600000,
        "relative_velocity" : {
          "kilometers_per_second" : "12.1185099534",
          "kilometers_per_hour" : "43626.6358322947",
          "miles_per_hour" : "27107.8949147945"
        },
        "miss_distance" : {
          "astronomical" : "0.3598014121",
          "lunar" : "139.9627532959",
          "kilometers" : "53825524",
          "miles" : "33445630"
        },
        "orbiting_body" : "Earth"
      } ],
      "orbital_data" : {
        "orbit_id" : "5",
        "orbit_determination_date" : "2017-04-06 08:48:30",
        "orbit_uncertainty" : "6",
        "minimum_orbit_intersection" : ".0187898",
        "jupiter_tisserand_invariant" : "6.384",
        "epoch_osculation" : "2458000.5",
        "eccentricity" : ".326860711970322",
        "semi_major_axis" : ".9302337444493961",
        "inclination" : "8.333753551706272",
        "ascending_node_longitude" : "20.49127086505545",
        "orbital_period" : "327.7076361182716",
        "perihelion_distance" : ".626176880439848",
        "perihelion_argument" : "128.46312989278",
        "aphelion_distance" : "1.234290608458944",
        "perihelion_time" : "2457939.712985574642",
        "mean_anomaly" : "66.77697673554127",
        "mean_motion" : "1.098540163006986",
        "equinox" : "J2000"
      }
    } ]
  }
}